{
  "type": "FeatureCollection",
  "features": [
    {
      "type": "Feature",
      "properties": {
        "norad_id": 40730,
        "name": "GPS BIIF-10 (PRN 08)",
        "group": "gps-ops",
        "lat": -41.24855298445332,
        "lon": -124.86345811431323,
        "alt_km": 20139.080560302948,
        "timestamp": "2025-12-20T03:42:47.651864+00:00",
        "meta_object_name": "GPS BIIF-10 (PRN 08)",
        "meta_object_id": "2015-033A",
        "meta_epoch": "2025-12-19T05:34:06.019968",
        "meta_mean_motion": 2.00565397,
        "meta_eccentricity": 0.01113411,
        "meta_inclination": 54.125,
        "meta_ra_of_asc_node": 274.5058,
        "meta_arg_of_pericenter": 26.9648,
        "meta_mean_anomaly": 333.641,
        "meta_ephemeris_type": 0,
        "meta_classification_type": "U",
        "meta_norad_cat_id": 40730,
        "meta_element_set_no": 999,
        "meta_rev_at_epoch": 7638,
        "meta_bstar": 0,
        "meta_mean_motion_dot": -2.6e-07,
        "meta_mean_motion_ddot": 0,
        "tle_line1": "1 40730U 15033A   25353.23201412 -.00000026  00000+0  00000+0 0  9996",
        "tle_line2": "2 40730  54.1250 274.5058 0111341  26.9648 333.6410  2.00565397 76381"
      },
      "geometry": {
        "type": "Point",
        "coordinates": [
          -124.86345811431323,
          -41.24855298445332
        ]
      }
    },
    {
      "type": "Feature",
      "properties": {
        "norad_id": 41019,
        "name": "GPS BIIF-11 (PRN 10)",
        "group": "gps-ops",
        "lat": -56.20684646603405,
        "lon": -64.75509693528724,
        "alt_km": 19938.93280609999,
        "timestamp": "2025-12-20T03:42:47.651875+00:00",
        "meta_object_name": "GPS BIIF-11 (PRN 10)",
        "meta_object_id": "2015-062A",
        "meta_epoch": "2025-12-18T07:03:43.989696",
        "meta_mean_motion": 2.00567221,
        "meta_eccentricity": 0.0110964,
        "meta_inclination": 56.8362,
        "meta_ra_of_asc_node": 37.7874,
        "meta_arg_of_pericenter": 230.0867,
        "meta_mean_anomaly": 128.9943,
        "meta_ephemeris_type": 0,
        "meta_classification_type": "U",
        "meta_norad_cat_id": 41019,
        "meta_element_set_no": 999,
        "meta_rev_at_epoch": 7420,
        "meta_bstar": 0,
        "meta_mean_motion_dot": -6.9e-07,
        "meta_mean_motion_ddot": 0,
        "tle_line1": "1 41019U 15062A   25352.29425914 -.00000069  00000+0  00000+0 0  9996",
        "tle_line2": "2 41019  56.8362  37.7874 0110964 230.0867 128.9943  2.00567221 74204"
      },
      "geometry": {
        "type": "Point",
        "coordinates": [
          -64.75509693528724,
          -56.20684646603405
        ]
      }
    },
    {
      "type": "Feature",
      "properties": {
        "norad_id": 41328,
        "name": "GPS BIIF-12 (PRN 32)",
        "group": "gps-ops",
        "lat": -18.014243715550226,
        "lon": -70.48952610866696,
        "alt_km": 20000.594503318553,
        "timestamp": "2025-12-20T03:42:47.651886+00:00",
        "meta_object_name": "GPS BIIF-12 (PRN 32)",
        "meta_object_id": "2016-007A",
        "meta_epoch": "2025-12-18T21:00:41.238720",
        "meta_mean_motion": 2.00560478,
        "meta_eccentricity": 0.0092465,
        "meta_inclination": 55.4095,
        "meta_ra_of_asc_node": 96.6135,
        "meta_arg_of_pericenter": 243.7229,
        "meta_mean_anomaly": 115.3113,
        "meta_ephemeris_type": 0,
        "meta_classification_type": "U",
        "meta_norad_cat_id": 41328,
        "meta_element_set_no": 999,
        "meta_rev_at_epoch": 7222,
        "meta_bstar": 0,
        "meta_mean_motion_dot": -3.1e-07,
        "meta_mean_motion_ddot": 0,
        "tle_line1": "1 41328U 16007A   25352.87547730 -.00000031  00000+0  00000+0 0  9993",
        "tle_line2": "2 41328  55.4095  96.6135 0092465 243.7229 115.3113  2.00560478 72223"
      },
      "geometry": {
        "type": "Point",
        "coordinates": [
          -70.48952610866696,
          -18.014243715550226
        ]
      }
    },
    {
      "type": "Feature",
      "properties": {
        "norad_id": 43873,
        "name": "GPS BIII-1  (PRN 04)",
        "group": "gps-ops",
        "lat": 55.013238226295684,
        "lon": -158.89986158084142,
        "alt_km": 20191.06801597771,
        "timestamp": "2025-12-20T03:42:47.651898+00:00",
        "meta_object_name": "GPS BIII-1  (PRN 04)",
        "meta_object_id": "2018-109A",
        "meta_epoch": "2025-12-19T11:24:42.219360",
        "meta_mean_motion": 2.00553941,
        "meta_eccentricity": 0.003755,
        "meta_inclination": 55.5704,
        "meta_ra_of_asc_node": 99.2813,
        "meta_arg_of_pericenter": 195.3177,
        "meta_mean_anomaly": 131.4113,
        "meta_ephemeris_type": 0,
        "meta_classification_type": "U",
        "meta_norad_cat_id": 43873,
        "meta_element_set_no": 999,
        "meta_rev_at_epoch": 5146,
        "meta_bstar": 0,
        "meta_mean_motion_dot": -2.3e-07,
        "meta_mean_motion_ddot": 0,
        "tle_line1": "1 43873U 18109A   25353.47548865 -.00000023  00000+0  00000+0 0  9993",
        "tle_line2": "2 43873  55.5704  99.2813 0037550 195.3177 131.4113  2.00553941 51467"
      },
      "geometry": {
        "type": "Point",
        "coordinates": [
          -158.89986158084142,
          55.013238226295684
        ]
      }
    },
    {
      "type": "Feature",
      "properties": {
        "norad_id": 44506,
        "name": "GPS BIII-2  (PRN 18)",
        "group": "gps-ops",
        "lat": -4.384490876557035,
        "lon": -24.75174256073673,
        "alt_km": 20322.56686428103,
        "timestamp": "2025-12-20T03:42:47.651909+00:00",
        "meta_object_name": "GPS BIII-2  (PRN 18)",
        "meta_object_id": "2019-056A",
        "meta_epoch": "2025-12-19T09:43:49.309248",
        "meta_mean_motion": 2.00566645,
        "meta_eccentricity": 0.0057727,
        "meta_inclination": 55.7191,
        "meta_ra_of_asc_node": 338.2882,
        "meta_arg_of_pericenter": 198.5275,
        "meta_mean_anomaly": 334.872,
        "meta_ephemeris_type": 0,
        "meta_classification_type": "U",
        "meta_norad_cat_id": 44506,
        "meta_element_set_no": 999,
        "meta_rev_at_epoch": 4646,
        "meta_bstar": 0,
        "meta_mean_motion_dot": -8.1e-07,
        "meta_mean_motion_ddot": 0,
        "tle_line1": "1 44506U 19056A   25353.40543182 -.00000081  00000+0  00000+0 0  9993",
        "tle_line2": "2 44506  55.7191 338.2882 0057727 198.5275 334.8720  2.00566645 46469"
      },
      "geometry": {
        "type": "Point",
        "coordinates": [
          -24.75174256073673,
          -4.384490876557035
        ]
      }
    },
    {
      "type": "Feature",
      "properties": {
        "norad_id": 45854,
        "name": "GPS BIII-3  (PRN 23)",
        "group": "gps-ops",
        "lat": -46.86155646291215,
        "lon": -8.910554360472998,
        "alt_km": 20201.366804455836,
        "timestamp": "2025-12-20T03:42:47.651920+00:00",
        "meta_object_name": "GPS BIII-3  (PRN 23)",
        "meta_object_id": "2020-041A",
        "meta_epoch": "2025-12-19T05:46:39.794304",
        "meta_mean_motion": 2.00561972,
        "meta_eccentricity": 0.006061,
        "meta_inclination": 56.5512,
        "meta_ra_of_asc_node": 35.9326,
        "meta_arg_of_pericenter": 203.6529,
        "meta_mean_anomaly": 154.7875,
        "meta_ephemeris_type": 0,
        "meta_classification_type": "U",
        "meta_norad_cat_id": 45854,
        "meta_element_set_no": 999,
        "meta_rev_at_epoch": 4042,
        "meta_bstar": 0,
        "meta_mean_motion_dot": -6.4e-07,
        "meta_mean_motion_ddot": 0,
        "tle_line1": "1 45854U 20041A   25353.24073836 -.00000064  00000+0  00000+0 0  9993",
        "tle_line2": "2 45854  56.5512  35.9326 0060610 203.6529 154.7875  2.00561972 40429"
      },
      "geometry": {
        "type": "Point",
        "coordinates": [
          -8.910554360472998,
          -46.86155646291215
        ]
      }
    },
    {
      "type": "Feature",
      "properties": {
        "norad_id": 46826,
        "name": "GPS BIII-4  (PRN 14)",
        "group": "gps-ops",
        "lat": -54.00319390873624,
        "lon": 128.3308221698105,
        "alt_km": 20118.329249566836,
        "timestamp": "2025-12-20T03:42:47.651932+00:00",
        "meta_object_name": "GPS BIII-4  (PRN 14)",
        "meta_object_id": "2020-078A",
        "meta_epoch": "2025-12-16T01:06:13.902336",
        "meta_mean_motion": 2.00566891,
        "meta_eccentricity": 0.0064755,
        "meta_inclination": 54.0145,
        "meta_ra_of_asc_node": 218.2068,
        "meta_arg_of_pericenter": 203.3828,
        "meta_mean_anomaly": 339.3936,
        "meta_ephemeris_type": 0,
        "meta_classification_type": "U",
        "meta_norad_cat_id": 46826,
        "meta_element_set_no": 999,
        "meta_rev_at_epoch": 3783,
        "meta_bstar": 0,
        "meta_mean_motion_dot": 6.7e-07,
        "meta_mean_motion_ddot": 0,
        "tle_line1": "1 46826U 20078A   25350.04599424  .00000067  00000+0  00000+0 0  9996",
        "tle_line2": "2 46826  54.0145 218.2068 0064755 203.3828 339.3936  2.00566891 37831"
      },
      "geometry": {
        "type": "Point",
        "coordinates": [
          128.3308221698105,
          -54.00319390873624
        ]
      }
    }
  ]
}